start=new Date('2023-04-25T00:00:00.000Z').valueOf();
sats=[{"MEAN_ANOMALY":"277.5592","COUNTRY_CODE":"US","TLE_LINE1":"1 52656U 22053A   23113.52753396  .00023774  00000-0  15069-2 0  9992","ECCENTRICITY":"0.00012990","SEMIMAJOR_AXIS":"6917.888","ELEMENT_SET_NO":"999","LAUNCH_DATE":"2022-05-18","CLASSIFICATION_TYPE":"U","FILE":"3893330","DECAY_DATE":null,"GP_ID":"230699903","OBJECT_TYPE":"PAYLOAD","NORAD_CAT_ID":"52656","BSTAR":"0.00150690000000","EPHEMERIS_TYPE":"0","MEAN_MOTION_DDOT":"0.0000000000000","TLE_LINE2":"2 52656  53.2139 192.9717 0001299  82.5547 277.5592 15.08837385 52425","REV_AT_EPOCH":"5242","OBJECT_ID":"2022-053A","REF_FRAME":"TEME","APOAPSIS":"540.652","MEAN_MOTION":"15.08837385","OBJECT_NAME":"STARLINK-4004","INCLINATION":"53.2139","EPOCH":"2023-04-23T12:39:38.934144","MEAN_MOTION_DOT":"0.00023774","PERIOD":"95.438","RCS_SIZE":"LARGE","ARG_OF_PERICENTER":"82.5547","PERIAPSIS":"538.855","MEAN_ELEMENT_THEORY":"SGP4","RA_OF_ASC_NODE":"192.9717","SITE":"AFETR","TIME_SYSTEM":"UTC","CENTER_NAME":"EARTH"},{"LAUNCH_DATE":"2022-05-18","CLASSIFICATION_TYPE":"U","ELEMENT_SET_NO":"999","SEMIMAJOR_AXIS":"6917.884","TLE_LINE1":"1 52657U 22053B   23113.73361271  .00000771  00000-0  66506-4 0  9999","ECCENTRICITY":"0.00014310","COUNTRY_CODE":"US","MEAN_ANOMALY":"283.9332","APOAPSIS":"540.739","REF_FRAME":"TEME","TLE_LINE2":"2 52657  53.2129 192.0466 0001431  76.1819 283.9332 15.08838694 52759","REV_AT_EPOCH":"5275","OBJECT_ID":"2022-053B","MEAN_MOTION_DDOT":"0.0000000000000","OBJECT_TYPE":"PAYLOAD","NORAD_CAT_ID":"52657","BSTAR":"0.00006650600000","EPHEMERIS_TYPE":"0","GP_ID":"230661464","FILE":"3892831","DECAY_DATE":null,"RCS_SIZE":"LARGE","PERIOD":"95.438","MEAN_MOTION_DOT":"0.00000771","EPOCH":"2023-04-23T17:36:24.138144","MEAN_MOTION":"15.08838694","OBJECT_NAME":"STARLINK-4084","INCLINATION":"53.2129","CENTER_NAME":"EARTH","TIME_SYSTEM":"UTC","SITE":"AFETR","RA_OF_ASC_NODE":"192.0466","MEAN_ELEMENT_THEORY":"SGP4","PERIAPSIS":"538.759","ARG_OF_PERICENTER":"76.1819"},{"RCS_SIZE":"LARGE","PERIOD":"95.437","EPOCH":"2023-04-23T22:17:15.411840","MEAN_MOTION_DOT":"0.00001989","INCLINATION":"53.2159","OBJECT_NAME":"STARLINK-4082","MEAN_MOTION":"15.08844392","TIME_SYSTEM":"UTC","CENTER_NAME":"EARTH","RA_OF_ASC_NODE":"191.1703","SITE":"AFETR","PERIAPSIS":"538.887","ARG_OF_PERICENTER":"82.1734","MEAN_ELEMENT_THEORY":"SGP4","LAUNCH_DATE":"2022-05-18","CLASSIFICATION_TYPE":"U","SEMIMAJOR_AXIS":"6917.867","ELEMENT_SET_NO":"999","COUNTRY_CODE":"US","ECCENTRICITY":"0.00012210","TLE_LINE1":"1 52658U 22053C   23113.92865060  .00001989  00000-0  14302-3 0  9994","MEAN_ANOMALY":"277.9397","REV_AT_EPOCH":"5260","OBJECT_ID":"2022-053C","TLE_LINE2":"2 52658  53.2159 191.1703 0001221  82.1734 277.9397 15.08844392 52607","REF_FRAME":"TEME","APOAPSIS":"540.577","MEAN_MOTION_DDOT":"0.0000000000000","GP_ID":"230699404","BSTAR":"0.00014302000000","OBJECT_TYPE":"PAYLOAD","EPHEMERIS_TYPE":"0","NORAD_CAT_ID":"52658","DECAY_DATE":null,"FILE":"3893330"},{"PERIOD":"95.434","RCS_SIZE":"LARGE","OBJECT_NAME":"STARLINK-3960","INCLINATION":"53.2134","MEAN_MOTION":"15.08889921","MEAN_MOTION_DOT":"0.00031814","EPOCH":"2023-04-24T06:15:33.353280","SITE":"AFETR","RA_OF_ASC_NODE":"189.6791","CENTER_NAME":"EARTH","TIME_SYSTEM":"UTC","ARG_OF_PERICENTER":"86.7498","PERIAPSIS":"538.815","MEAN_ELEMENT_THEORY":"SGP4","ELEMENT_SET_NO":"999","SEMIMAJOR_AXIS":"6917.728","LAUNCH_DATE":"2022-05-18","CLASSIFICATION_TYPE":"U","MEAN_ANOMALY":"273.3623","ECCENTRICITY":"0.00011250","TLE_LINE1":"1 52659U 22053D   23114.26080270  .00031814  00000-0  20053-2 0  9994","COUNTRY_CODE":"US","MEAN_MOTION_DDOT":"0.0000000000000","REF_FRAME":"TEME","APOAPSIS":"540.371","OBJECT_ID":"2022-053D","REV_AT_EPOCH":"5264","TLE_LINE2":"2 52659  53.2134 189.6791 0001125  86.7498 273.3623 15.08889921 52643","FILE":"3893330","DECAY_DATE":null,"OBJECT_TYPE":"PAYLOAD","NORAD_CAT_ID":"52659","BSTAR":"0.00200530000000","EPHEMERIS_TYPE":"0","GP_ID":"230699654"},{"RCS_SIZE":"LARGE","PERIOD":"95.431","EPOCH":"2023-04-24T17:11:14.663616","MEAN_MOTION_DOT":"0.00047858","MEAN_MOTION":"15.08942532","OBJECT_NAME":"STARLINK-4081","INCLINATION":"53.2151","TIME_SYSTEM":"UTC","CENTER_NAME":"EARTH","RA_OF_ASC_NODE":"187.6364","SITE":"AFETR","PERIAPSIS":"538.439","MEAN_ELEMENT_THEORY":"SGP4","ARG_OF_PERICENTER":"85.3512","LAUNCH_DATE":"2022-05-18","CLASSIFICATION_TYPE":"U","SEMIMAJOR_AXIS":"6917.567","ELEMENT_SET_NO":"999","COUNTRY_CODE":"US","TLE_LINE1":"1 52660U 22053E   23114.71614194  .00047858  00000-0  29964-2 0  9999","ECCENTRICITY":"0.00014350","MEAN_ANOMALY":"274.7644","TLE_LINE2":"2 52660  53.2151 187.6364 0001435  85.3512 274.7644 15.08942532 52606","OBJECT_ID":"2022-053E","REV_AT_EPOCH":"5260","REF_FRAME":"TEME","APOAPSIS":"540.425","MEAN_MOTION_DDOT":"0.0000000000000","GP_ID":"230704552","NORAD_CAT_ID":"52660","OBJECT_TYPE":"PAYLOAD","BSTAR":"0.00299640000000","EPHEMERIS_TYPE":"0","DECAY_DATE":null,"FILE":"3893414"},{"BSTAR":"0.00024213000000","OBJECT_TYPE":"PAYLOAD","NORAD_CAT_ID":"52661","EPHEMERIS_TYPE":"0","GP_ID":"230700155","DECAY_DATE":null,"FILE":"3893330","APOAPSIS":"540.643","REF_FRAME":"TEME","TLE_LINE2":"2 52661  53.2155 191.2230 0001313  99.3917 260.7223 15.08843402 52416","OBJECT_ID":"2022-053F","REV_AT_EPOCH":"5241","MEAN_MOTION_DDOT":"0.0000000000000","TLE_LINE1":"1 52661U 22053F   23113.91761095  .00003568  00000-0  24213-3 0  9997","ECCENTRICITY":"0.00013130","COUNTRY_CODE":"US","MEAN_ANOMALY":"260.7223","LAUNCH_DATE":"2022-05-18","CLASSIFICATION_TYPE":"U","ELEMENT_SET_NO":"999","SEMIMAJOR_AXIS":"6917.870","MEAN_ELEMENT_THEORY":"SGP4","PERIAPSIS":"538.827","ARG_OF_PERICENTER":"99.3917","CENTER_NAME":"EARTH","TIME_SYSTEM":"UTC","SITE":"AFETR","RA_OF_ASC_NODE":"191.2230","MEAN_MOTION_DOT":"0.00003568","EPOCH":"2023-04-23T22:01:21.586080","MEAN_MOTION":"15.08843402","OBJECT_NAME":"STARLINK-4042","INCLINATION":"53.2155","RCS_SIZE":"LARGE","PERIOD":"95.437"},{"ELEMENT_SET_NO":"999","SEMIMAJOR_AXIS":"6917.669","CLASSIFICATION_TYPE":"U","LAUNCH_DATE":"2022-05-18","MEAN_ANOMALY":"265.2464","TLE_LINE1":"1 52662U 22053G   23114.24144268  .00041899  00000-0  26301-2 0  9990","ECCENTRICITY":"0.00011050","COUNTRY_CODE":"US","MEAN_MOTION_DDOT":"0.0000000000000","APOAPSIS":"540.298","REF_FRAME":"TEME","TLE_LINE2":"2 52662  53.2155 189.7630 0001105  94.8655 265.2464 15.08909288 52468","REV_AT_EPOCH":"5246","OBJECT_ID":"2022-053G","DECAY_DATE":null,"FILE":"3893330","OBJECT_TYPE":"PAYLOAD","EPHEMERIS_TYPE":"0","BSTAR":"0.00263010000000","NORAD_CAT_ID":"52662","GP_ID":"230698905","PERIOD":"95.433","RCS_SIZE":"LARGE","MEAN_MOTION":"15.08909288","INCLINATION":"53.2155","OBJECT_NAME":"STARLINK-4044","MEAN_MOTION_DOT":"0.00041899","EPOCH":"2023-04-24T05:47:40.647552","SITE":"AFETR","RA_OF_ASC_NODE":"189.7630","CENTER_NAME":"EARTH","TIME_SYSTEM":"UTC","MEAN_ELEMENT_THEORY":"SGP4","PERIAPSIS":"538.769","ARG_OF_PERICENTER":"94.8655"},{"PERIOD":"95.433","RCS_SIZE":"LARGE","MEAN_MOTION":"15.08905870","OBJECT_NAME":"STARLINK-4037","INCLINATION":"53.2146","MEAN_MOTION_DOT":"0.00056373","EPOCH":"2023-04-24T05:42:23.231232","SITE":"AFETR","RA_OF_ASC_NODE":"189.7826","CENTER_NAME":"EARTH","TIME_SYSTEM":"UTC","MEAN_ELEMENT_THEORY":"SGP4","PERIAPSIS":"538.650","ARG_OF_PERICENTER":"91.5226","ELEMENT_SET_NO":"999","SEMIMAJOR_AXIS":"6917.679","LAUNCH_DATE":"2022-05-18","CLASSIFICATION_TYPE":"U","MEAN_ANOMALY":"268.5914","TLE_LINE1":"1 52663U 22053H   23114.23776888  .00056373  00000-0  35256-2 0  9991","ECCENTRICITY":"0.00012920","COUNTRY_CODE":"US","MEAN_MOTION_DDOT":"0.0000000000000","APOAPSIS":"540.438","REF_FRAME":"TEME","TLE_LINE2":"2 52663  53.2146 189.7826 0001292  91.5226 268.5914 15.08905870 52460","REV_AT_EPOCH":"5246","OBJECT_ID":"2022-053H","FILE":"3893330","DECAY_DATE":null,"BSTAR":"0.00352560000000","OBJECT_TYPE":"PAYLOAD","NORAD_CAT_ID":"52663","EPHEMERIS_TYPE":"0","GP_ID":"230699155"},{"RCS_SIZE":"LARGE","PERIOD":"95.437","EPOCH":"2023-04-23T21:56:03.512256","MEAN_MOTION_DOT":"0.00002177","MEAN_MOTION":"15.08845324","INCLINATION":"53.2156","OBJECT_NAME":"STARLINK-4070","TIME_SYSTEM":"UTC","CENTER_NAME":"EARTH","RA_OF_ASC_NODE":"191.2322","SITE":"AFETR","PERIAPSIS":"538.861","ARG_OF_PERICENTER":"95.6352","MEAN_ELEMENT_THEORY":"SGP4","LAUNCH_DATE":"2022-05-18","CLASSIFICATION_TYPE":"U","SEMIMAJOR_AXIS":"6917.864","ELEMENT_SET_NO":"999","COUNTRY_CODE":"US","TLE_LINE1":"1 52664U 22053J   23113.91392954  .00002177  00000-0  15478-3 0  9992","ECCENTRICITY":"0.00012550","MEAN_ANOMALY":"264.4784","TLE_LINE2":"2 52664  53.2156 191.2322 0001255  95.6352 264.4784 15.08845324 52417","OBJECT_ID":"2022-053J","REV_AT_EPOCH":"5241","APOAPSIS":"540.597","REF_FRAME":"TEME","MEAN_MOTION_DDOT":"0.0000000000000","GP_ID":"230699904","OBJECT_TYPE":"PAYLOAD","NORAD_CAT_ID":"52664","BSTAR":"0.00015478000000","EPHEMERIS_TYPE":"0","DECAY_DATE":null,"FILE":"3893330"},{"OBJECT_NAME":"STARLINK-4064","INCLINATION":"53.2155","MEAN_MOTION":"15.08900795","MEAN_MOTION_DOT":"0.00037088","EPOCH":"2023-04-24T05:26:28.906080","PERIOD":"95.434","RCS_SIZE":"LARGE","MEAN_ELEMENT_THEORY":"SGP4","PERIAPSIS":"538.645","ARG_OF_PERICENTER":"89.5907","SITE":"AFETR","RA_OF_ASC_NODE":"189.8273","CENTER_NAME":"EARTH","TIME_SYSTEM":"UTC","MEAN_ANOMALY":"270.5236","ECCENTRICITY":"0.00013220","TLE_LINE1":"1 52665U 22053K   23114.22672345  .00037088  00000-0  23323-2 0  9999","COUNTRY_CODE":"US","ELEMENT_SET_NO":"999","SEMIMAJOR_AXIS":"6917.695","CLASSIFICATION_TYPE":"U","LAUNCH_DATE":"2022-05-18","FILE":"3893330","DECAY_DATE":null,"NORAD_CAT_ID":"52665","OBJECT_TYPE":"PAYLOAD","BSTAR":"0.00233230000000","EPHEMERIS_TYPE":"0","GP_ID":"230700656","MEAN_MOTION_DDOT":"0.0000000000000","REF_FRAME":"TEME","APOAPSIS":"540.474","REV_AT_EPOCH":"5246","OBJECT_ID":"2022-053K","TLE_LINE2":"2 52665  53.2155 189.8273 0001322  89.5907 270.5236 15.08900795 52467"}];
